     2              NAVIGATION DATA                         RINEX VERSION / TYPE
CCRINEXN V1.6.0 UX  CDDIS               27-FEB-16 15:33     PGM / RUN BY / DATE 
IGS BROADCAST EPHEMERIS FILE                                COMMENT             
    0.1397D-07  0.0000D+00 -0.5960D-07  0.5960D-07          ION ALPHA           
    0.1106D+06 -0.3277D+05 -0.2621D+06  0.1966D+06          ION BETA            
    0.931322574615D-09 0.888178419700D-15    61440     1886 DELTA-UTC: A0,A1,T,W
    17                                                      LEAP SECONDS        
                                                            END OF HEADER       
 1 16  2 26  0  0  0.0 0.127367675304D-04 0.102318153950D-11 0.000000000000D+00
    0.240000000000D+02-0.639687500000D+02 0.457269047091D-08-0.126296569742D+01
   -0.332295894623D-05 0.509526312817D-02 0.548362731934D-05 0.515365005302D+04
    0.432000000000D+06 0.135973095894D-06-0.531459183168D+00-0.109896063805D-06
    0.963978128416D+00 0.276718750000D+03 0.461819828009D+00-0.819284126472D-08
   -0.368229623956D-09 0.100000000000D+01 0.188500000000D+04 0.000000000000D+00
    0.200000000000D+01 0.000000000000D+00 0.512227416039D-08 0.240000000000D+02
    0.424818000000D+06 0.400000000000D+01 0.000000000000D+00 0.000000000000D+00
 2 16  2 26  0  0  0.0 0.599475577474D-03-0.113686837722D-12 0.000000000000D+00
    0.300000000000D+02-0.593437500000D+02 0.529986365905D-08-0.802774154286D+00
   -0.288337469101D-05 0.154862049967D-01 0.503659248352D-05 0.515372364426D+04
    0.432000000000D+06 0.465661287308D-07-0.574981092579D+00 0.314787030220D-06
    0.942678544425D+00 0.273968750000D+03-0.215873818306D+01-0.874429240128D-08
   -0.368943930962D-09 0.100000000000D+01 0.188500000000D+04 0.000000000000D+00
    0.200000000000D+01 0.000000000000D+00-0.204890966415D-07 0.300000000000D+02
    0.432000000000D+06 0.000000000000D+00 0.000000000000D+00 0.000000000000D+00
 3 16  2 26  0  0  0.0-0.291075557470D-04-0.454747350886D-11 0.000000000000D+00
    0.730000000000D+02-0.108750000000D+02 0.420088926961D-08 0.121938575990D+01
   -0.467523932457D-06 0.261309556663D-03 0.116005539894D-04 0.515376384354D+04
    0.432000000000D+06-0.800937414169D-07 0.509311447552D+00 0.745058059692D-07
    0.959665394716D+00 0.156093750000D+03-0.309720925074D+01-0.779853912617D-08
    0.564309220030D-10 0.100000000000D+01 0.188500000000D+04 0.000000000000D+00
    0.280000000000D+01 0.000000000000D+00 0.186264514923D-08 0.730000000000D+02
    0.425460000000D+06 0.400000000000D+01 0.000000000000D+00 0.000000000000D+00
 4 16  2 26  0  0  0.0-0.251095276326D-03-0.909494701773D-12 0.000000000000D+00
    0.880000000000D+02-0.381250000000D+01 0.510199823299D-08 0.193648625859D+01
   -0.199303030968D-06 0.816881668288D-02 0.122711062431D-04 0.515362454987D+04
    0.432000000000D+06-0.193715095520D-06-0.261032864710D+01-0.106170773506D-06
    0.983639008627D+00 0.156281250000D+03 0.856104660241D+00-0.763781814578D-08
   -0.400016662300D-10 0.100000000000D+01 0.188500000000D+04 0.000000000000D+00
    0.280000000000D+01 0.630000000000D+02-0.190921127796D-07 0.880000000000D+02
    0.430950000000D+06 0.400000000000D+01 0.000000000000D+00 0.000000000000D+00
 5 16  2 26  0  0  0.0-0.142797827721D-03 0.341060513165D-11 0.000000000000D+00
    0.580000000000D+02-0.293750000000D+01 0.456769026263D-08 0.166344189593D+01
   -0.126659870148D-06 0.458028260618D-02 0.116378068924D-04 0.515374411392D+04
    0.432000000000D+06-0.335276126862D-07 0.498631664273D+00 0.186264514923D-07
    0.946774036253D+00 0.149343750000D+03 0.477304379929D+00-0.800890503161D-08
   -0.182150444440D-10 0.100000000000D+01 0.188500000000D+04 0.000000000000D+00
    0.200000000000D+01 0.000000000000D+00-0.107102096081D-07 0.580000000000D+02
    0.426552000000D+06 0.400000000000D+01 0.000000000000D+00 0.000000000000D+00
 6 16  2 26  0  0  0.0 0.151275191456D-03 0.591171556152D-11 0.000000000000D+00
    0.990000000000D+02-0.626250000000D+02 0.463269289597D-08-0.457173970308D+00
   -0.321865081787D-05 0.332974363118D-03 0.541470944881D-05 0.515364139557D+04
    0.432000000000D+06 0.745058059692D-08-0.539907137162D+00 0.335276126862D-07
    0.963815239802D+00 0.278250000000D+03-0.189205575416D+01-0.824712920178D-08
   -0.345371536925D-09 0.100000000000D+01 0.188500000000D+04 0.000000000000D+00
    0.200000000000D+01 0.000000000000D+00 0.419095158577D-08 0.990000000000D+02
    0.432000000000D+06 0.000000000000D+00 0.000000000000D+00 0.000000000000D+00
 7 16  2 26  0  0  0.0 0.467993784696D-03-0.170530256582D-11 0.000000000000D+00
    0.560000000000D+02-0.515000000000D+02 0.464912222603D-08-0.197589096208D+01
   -0.286474823952D-05 0.909254269209D-02 0.566802918911D-05 0.515366840172D+04
    0.432000000000D+06 0.134110450745D-06 0.262788588476D+01-0.106170773506D-06
    0.967369903982D+00 0.272468750000D+03-0.268167352921D+01-0.816248285732D-08
   -0.198579700213D-09 0.100000000000D+01 0.188500000000D+04 0.000000000000D+00
    0.280000000000D+01 0.000000000000D+00-0.111758708954D-07 0.560000000000D+02
    0.424818000000D+06 0.400000000000D+01 0.000000000000D+00 0.000000000000D+00
 8 16  2 26  0  0  0.0-0.252774916589D-04-0.147792889038D-11 0.000000000000D+00
    0.420000000000D+02 0.495000000000D+02 0.472055377287D-08 0.198890526856D+01
    0.257231295109D-05 0.182759633753D-02 0.539794564247D-05 0.515365004349D+04
    0.432000000000D+06-0.186264514923D-08-0.159156618669D+01-0.614672899246D-07
    0.961942432558D+00 0.270468750000D+03-0.134206188608D+01-0.825927260328D-08
    0.223223583873D-09 0.100000000000D+01 0.188500000000D+04 0.000000000000D+00
    0.200000000000D+01 0.000000000000D+00 0.465661287308D-08 0.420000000000D+02
    0.425568000000D+06 0.400000000000D+01 0.000000000000D+00 0.000000000000D+00
 9 16  2 26  0  0  0.0 0.781305134296D-04 0.761701812735D-11 0.000000000000D+00
    0.300000000000D+02 0.607500000000D+02 0.481448625696D-08 0.831509224222D+00
    0.320002436638D-05 0.654089497402D-03 0.577047467232D-05 0.515363002968D+04
    0.432000000000D+06-0.372529029846D-07 0.154972707633D+01-0.372529029846D-08
    0.955206480390D+00 0.262781250000D+03 0.191850226431D+01-0.831748931396D-08
    0.428232123301D-09 0.100000000000D+01 0.188500000000D+04 0.000000000000D+00
    0.200000000000D+01 0.000000000000D+00 0.139698386192D-08 0.300000000000D+02
    0.424818000000D+06 0.400000000000D+01 0.000000000000D+00 0.000000000000D+00
10 16  2 26  0  0  0.0 0.382219441235D-04-0.602540239925D-11 0.000000000000D+00
    0.330000000000D+02-0.693750000000D+01 0.422803325741D-08 0.284866656130D+01
   -0.221654772759D-06 0.118513859343D-02 0.126417726278D-04 0.515369277954D+04
    0.432000000000D+06 0.372529029846D-08 0.505227768787D+00-0.372529029846D-07
    0.959926168641D+00 0.134000000000D+03-0.286953032151D+01-0.783782647693D-08
    0.607168148133D-10 0.100000000000D+01 0.188500000000D+04 0.000000000000D+00
    0.200000000000D+01 0.000000000000D+00 0.232830643654D-08 0.330000000000D+02
    0.424818000000D+06 0.400000000000D+01 0.000000000000D+00 0.000000000000D+00
11 16  2 26  0  0  0.0-0.634026713669D-03-0.170530256582D-11 0.000000000000D+00
    0.104000000000D+03-0.214687500000D+02 0.622775919723D-08-0.185576372195D+01
   -0.877305865288D-06 0.162270829314D-01 0.245310366154D-05 0.515365019989D+04
    0.432000000000D+06 0.301748514175D-06-0.901977521430D+00 0.273808836937D-06
    0.895623101223D+00 0.294468750000D+03 0.150351821358D+01-0.894894380821D-08
   -0.158578039588D-09 0.100000000000D+01 0.188500000000D+04 0.000000000000D+00
    0.280000000000D+01 0.000000000000D+00-0.121071934700D-07 0.104000000000D+03
    0.432000000000D+06 0.000000000000D+00 0.000000000000D+00 0.000000000000D+00
12 16  2 26  0  0  0.0 0.369963236153D-03 0.159161572810D-11 0.000000000000D+00
    0.910000000000D+02 0.765625000000D+01 0.366979571887D-08-0.239223295920D+01
    0.428408384323D-06 0.589584454428D-02 0.122152268887D-04 0.515378450966D+04
    0.432000000000D+06 0.104308128357D-06-0.258173900731D+01-0.109896063805D-06
    0.990561970002D+00 0.157093750000D+03 0.675709303125D+00-0.752709924818D-08
    0.367872466222D-10 0.100000000000D+01 0.188500000000D+04 0.000000000000D+00
    0.200000000000D+01 0.000000000000D+00-0.121071934700D-07 0.910000000000D+02
    0.424818000000D+06 0.400000000000D+01 0.000000000000D+00 0.000000000000D+00
13 16  2 26  0  0  0.0-0.187829602510D-03-0.284217094304D-11 0.000000000000D+00
    0.830000000000D+02 0.541250000000D+02 0.461804950315D-08-0.101797227984D+01
    0.277347862721D-05 0.464966613799D-02 0.516138970852D-05 0.515367903328D+04
    0.432000000000D+06-0.316649675369D-07 0.166911963753D+01 0.111758708954D-07
    0.971639702499D+00 0.289093750000D+03 0.198114610029D+01-0.826212986516D-08
    0.389659088008D-09 0.100000000000D+01 0.188500000000D+04 0.000000000000D+00
    0.200000000000D+01 0.000000000000D+00-0.111758708954D-07 0.830000000000D+02
    0.431718000000D+06 0.400000000000D+01 0.000000000000D+00 0.000000000000D+00
14 16  2 26  0  0  0.0 0.910367816687D-06-0.227373675443D-11 0.000000000000D+00
    0.390000000000D+02 0.594687500000D+02 0.477877048354D-08 0.802758569820D+00
    0.300258398056D-05 0.833412318025D-02 0.559911131859D-05 0.515372691536D+04
    0.432000000000D+06-0.856816768646D-07 0.163264563879D+01 0.242143869400D-07
    0.964139170826D+00 0.270593750000D+03-0.195070066553D+01-0.845999524990D-08
    0.372158359032D-09 0.100000000000D+01 0.188500000000D+04 0.000000000000D+00
    0.200000000000D+01 0.000000000000D+00-0.931322574616D-08 0.390000000000D+02
    0.430860000000D+06 0.400000000000D+01 0.000000000000D+00 0.000000000000D+00
